{
  "type": "FeatureCollection",
  "features": [
    {
      "type": "Feature",
      "properties": {
        "norad_id": 66998,
        "name": "2025-292F",
        "group": "last-30-days",
        "lat": 11.707998596827652,
        "lon": -115.71685464114637,
        "alt_km": 554.6218721006708,
        "timestamp": "2025-12-16T03:53:25.818909+00:00",
        "meta_object_name": "2025-292F",
        "meta_object_id": "2025-292F",
        "meta_epoch": "2025-12-15T06:23:55.410720",
        "meta_mean_motion": 15.04855046,
        "meta_eccentricity": 0.0014471,
        "meta_inclination": 97.6571,
        "meta_ra_of_asc_node": 61.7978,
        "meta_arg_of_pericenter": 268.5274,
        "meta_mean_anomaly": 91.4295,
        "meta_ephemeris_type": 0,
        "meta_classification_type": "U",
        "meta_norad_cat_id": 66998,
        "meta_element_set_no": 999,
        "meta_rev_at_epoch": 77,
        "meta_bstar": 0.00030920108,
        "meta_mean_motion_dot": 4.318e-05,
        "meta_mean_motion_ddot": 0,
        "tle_line1": "1 66998U 25292F   25349.26661355  .00004318  00000+0  30920-3 0  9997",
        "tle_line2": "2 66998  97.6571  61.7978 0014471 268.5274  91.4295 15.04855046   776"
      },
      "geometry": {
        "type": "Point",
        "coordinates": [
          -115.71685464114637,
          11.707998596827652
        ]
      }
    },
    {
      "type": "Feature",
      "properties": {
        "norad_id": 66999,
        "name": "2025-292G",
        "group": "last-30-days",
        "lat": 10.355043264704474,
        "lon": -115.90452485196971,
        "alt_km": 554.721755128643,
        "timestamp": "2025-12-16T03:53:25.818919+00:00",
        "meta_object_name": "2025-292G",
        "meta_object_id": "2025-292G",
        "meta_epoch": "2025-12-15T07:59:21.843744",
        "meta_mean_motion": 15.04919138,
        "meta_eccentricity": 0.00139924,
        "meta_inclination": 97.658,
        "meta_ra_of_asc_node": 61.8645,
        "meta_arg_of_pericenter": 270.4717,
        "meta_mean_anomaly": 89.4906,
        "meta_ephemeris_type": 0,
        "meta_classification_type": "U",
        "meta_norad_cat_id": 66999,
        "meta_element_set_no": 999,
        "meta_rev_at_epoch": 78,
        "meta_bstar": 0.0003031101,
        "meta_mean_motion_dot": 4.238e-05,
        "meta_mean_motion_ddot": 0,
        "tle_line1": "1 66999U 25292G   25349.33289171  .00004238  00000+0  30311-3 0  9993",
        "tle_line2": "2 66999  97.6580  61.8645 0013992 270.4717  89.4906 15.04919138   780"
      },
      "geometry": {
        "type": "Point",
        "coordinates": [
          -115.90452485196971,
          10.355043264704474
        ]
      }
    },
    {
      "type": "Feature",
      "properties": {
        "norad_id": 67000,
        "name": "2025-292H",
        "group": "last-30-days",
        "lat": 10.395223517159806,
        "lon": -115.90007226682678,
        "alt_km": 554.6426661779687,
        "timestamp": "2025-12-16T03:53:25.818931+00:00",
        "meta_object_name": "2025-292H",
        "meta_object_id": "2025-292H",
        "meta_epoch": "2025-12-14T19:13:23.903904",
        "meta_mean_motion": 15.04913459,
        "meta_eccentricity": 0.00139506,
        "meta_inclination": 97.6593,
        "meta_ra_of_asc_node": 61.3355,
        "meta_arg_of_pericenter": 271.6746,
        "meta_mean_anomaly": 88.2882,
        "meta_ephemeris_type": 0,
        "meta_classification_type": "U",
        "meta_norad_cat_id": 67000,
        "meta_element_set_no": 999,
        "meta_rev_at_epoch": 57,
        "meta_bstar": 0.00012246431,
        "meta_mean_motion_dot": 1.674e-05,
        "meta_mean_motion_ddot": 0,
        "tle_line1": "1 67000U 25292H   25348.80097111  .00001674  00000+0  12246-3 0  9997",
        "tle_line2": "2 67000  97.6593  61.3355 0013950 271.6746  88.2882 15.04913459   577"
      },
      "geometry": {
        "type": "Point",
        "coordinates": [
          -115.90007226682678,
          10.395223517159806
        ]
      }
    },
    {
      "type": "Feature",
      "properties": {
        "norad_id": 67001,
        "name": "2025-292J",
        "group": "last-30-days",
        "lat": 22.834403034094283,
        "lon": -114.0717038226521,
        "alt_km": 554.8164944975179,
        "timestamp": "2025-12-16T03:53:25.818944+00:00",
        "meta_object_name": "2025-292J",
        "meta_object_id": "2025-292J",
        "meta_epoch": "2025-12-15T06:26:27.957696",
        "meta_mean_motion": 15.043328,
        "meta_eccentricity": 0.00142335,
        "meta_inclination": 97.6571,
        "meta_ra_of_asc_node": 61.7956,
        "meta_arg_of_pericenter": 259.3119,
        "meta_mean_anomaly": 100.6505,
        "meta_ephemeris_type": 0,
        "meta_classification_type": "U",
        "meta_norad_cat_id": 67001,
        "meta_element_set_no": 999,
        "meta_rev_at_epoch": 77,
        "meta_bstar": 0.00031949828,
        "meta_mean_motion_dot": 4.401e-05,
        "meta_mean_motion_ddot": 0,
        "tle_line1": "1 67001U 25292J   25349.26837914  .00004401  00000+0  31950-3 0  9996",
        "tle_line2": "2 67001  97.6571  61.7956 0014233 259.3119 100.6505 15.04332800   775"
      },
      "geometry": {
        "type": "Point",
        "coordinates": [
          -114.0717038226521,
          22.834403034094283
        ]
      }
    },
    {
      "type": "Feature",
      "properties": {
        "norad_id": 67002,
        "name": "ZK-1A R/B",
        "group": "last-30-days",
        "lat": 20.486485155280512,
        "lon": -113.8762277049981,
        "alt_km": 542.3010580143082,
        "timestamp": "2025-12-16T03:53:25.818955+00:00",
        "meta_object_name": "ZK-1A R/B",
        "meta_object_id": "2025-292K",
        "meta_epoch": "2025-12-15T04:03:08.191584",
        "meta_mean_motion": 15.5540471,
        "meta_eccentricity": 0.02173287,
        "meta_inclination": 97.724,
        "meta_ra_of_asc_node": 62.1431,
        "meta_arg_of_pericenter": 357.086,
        "meta_mean_anomaly": 2.911,
        "meta_ephemeris_type": 0,
        "meta_classification_type": "U",
        "meta_norad_cat_id": 67002,
        "meta_element_set_no": 999,
        "meta_rev_at_epoch": 77,
        "meta_bstar": 0.00070107255,
        "meta_mean_motion_dot": 0.00143408,
        "meta_mean_motion_ddot": 7.514883e-06,
        "tle_line1": "1 67002U 25292K   25349.16884481  .00143408  75149-5  70107-3 0  9997",
        "tle_line2": "2 67002  97.7240  62.1431 0217328 357.0860   2.9110 15.55404710   774"
      },
      "geometry": {
        "type": "Point",
        "coordinates": [
          -113.8762277049981,
          20.486485155280512
        ]
      }
    },
    {
      "type": "Feature",
      "properties": {
        "norad_id": 67059,
        "name": "HULIANWANG DIGUI 16A",
        "group": "last-30-days",
        "lat": 38.25657678048939,
        "lon": 136.3368692706265,
        "alt_km": 807.2478864680606,
        "timestamp": "2025-12-16T03:53:25.818965+00:00",
        "meta_object_name": "HULIANWANG DIGUI 16A",
        "meta_object_id": "2025-295A",
        "meta_epoch": "2025-12-12T05:06:27.347328",
        "meta_mean_motion": 14.25879966,
        "meta_eccentricity": 0.00136284,
        "meta_inclination": 50.0035,
        "meta_ra_of_asc_node": 14.4753,
        "meta_arg_of_pericenter": 247.7813,
        "meta_mean_anomaly": 112.1656,
        "meta_ephemeris_type": 0,
        "meta_classification_type": "U",
        "meta_norad_cat_id": 67059,
        "meta_element_set_no": 999,
        "meta_rev_at_epoch": 4,
        "meta_bstar": 3.434713e-06,
        "meta_mean_motion_dot": -1.52e-06,
        "meta_mean_motion_ddot": 0,
        "tle_line1": "1 67059U 25295A   25346.21281652 -.00000152  00000+0  34347-5 0  9991",
        "tle_line2": "2 67059  50.0035  14.4753 0013628 247.7813 112.1656 14.25879966    41"
      },
      "geometry": {
        "type": "Point",
        "coordinates": [
          136.3368692706265,
          38.25657678048939
        ]
      }
    },
    {
      "type": "Feature",
      "properties": {
        "norad_id": 67060,
        "name": "HULIANWANG DIGUI 16B",
        "group": "last-30-days",
        "lat": 37.005628996483466,
        "lon": 138.5281878701433,
        "alt_km": 806.2118951817456,
        "timestamp": "2025-12-16T03:53:25.818978+00:00",
        "meta_object_name": "HULIANWANG DIGUI 16B",
        "meta_object_id": "2025-295B",
        "meta_epoch": "2025-12-12T05:06:25.468992",
        "meta_mean_motion": 14.26022254,
        "meta_eccentricity": 0.0013423,
        "meta_inclination": 50.0012,
        "meta_ra_of_asc_node": 14.4776,
        "meta_arg_of_pericenter": 244.6732,
        "meta_mean_anomaly": 115.2792,
        "meta_ephemeris_type": 0,
        "meta_classification_type": "U",
        "meta_norad_cat_id": 67060,
        "meta_element_set_no": 999,
        "meta_rev_at_epoch": 4,
        "meta_bstar": 4.398892e-06,
        "meta_mean_motion_dot": -1.5e-06,
        "meta_mean_motion_ddot": 0,
        "tle_line1": "1 67060U 25295B   25346.21279478 -.00000150  00000+0  43989-5 0  9996",
        "tle_line2": "2 67060  50.0012  14.4776 0013423 244.6732 115.2792 14.26022254    48"
      },
      "geometry": {
        "type": "Point",
        "coordinates": [
          138.5281878701433,
          37.005628996483466
        ]
      }
    }
  ]
}